OBJECT_NAME,OBJECT_ID,EPOCH,MEAN_MOTION,ECCENTRICITY,INCLINATION,RA_OF_ASC_NODE,ARG_OF_PERICENTER,MEAN_ANOMALY,EPHEMERIS_TYPE,CLASSIFICATION_TYPE,NORAD_CAT_ID,ELEMENT_SET_NO,REV_AT_EPOCH,BSTAR,MEAN_MOTION_DOT,MEAN_MOTION_DDOT
STARLINK-37519,2026-119C,2026-06-25T23:59:04.678944,15.47053958,.0006695,97.2859,202.9138,30.6090,329.5550,0,U,69298,999,540,.11765E-2,.5983E-3,0
STARLINK-37455,2026-119D,2026-06-26T04:00:01.998720,15.49187931,.0001306,97.2854,202.9991,86.7067,288.8726,0,U,69299,999,532,.53644E-4,.2828E-4,0
STARLINK-37456,2026-119E,2026-06-26T04:39:59.063040,15.44854255,.0000811,97.2864,203.1067,45.7859,314.3456,0,U,69300,999,543,-.9281E-2,-.412599E-2,0
STARLINK-37630,2026-119F,2026-06-26T04:43:09.651072,15.49189448,.0000638,97.2864,202.9499,30.8055,329.3234,0,U,69301,999,542,.13596E-2,.74561E-3,0
STARLINK-37804,2026-119G,2026-06-26T00:05:56.488992,15.49217098,.0001804,97.2885,202.7550,108.1628,251.9820,0,U,69302,999,539,.89647E-3,.4902E-3,0
STARLINK-37730,2026-119H,2026-06-26T04:00:01.998720,15.33414807,.0000949,97.2849,203.1146,52.4901,241.3903,0,U,69303,999,548,-.81447E-3,-.26253E-3,0
STARLINK-37731,2026-119J,2026-06-26T00:07:29.646336,15.49213335,.0001716,97.2877,202.7531,89.2753,270.8694,0,U,69304,999,539,.83812E-3,.45798E-3,0
STARLINK-37734,2026-119K,2026-06-25T14:42:05.794848,15.47533383,.000536,97.2863,202.5212,34.3796,325.7800,0,U,69305,999,534,.38328E-1,.2188649E-1,0
STARLINK-37701,2026-119L,2026-06-26T04:00:01.998720,15.39661553,.0001678,97.2847,203.1350,91.7327,234.6404,0,U,69306,999,548,-.70873E-1,-.2473572E-1,0
STARLINK-37732,2026-119M,2026-06-26T04:00:01.998720,15.33456598,.0001065,97.2846,203.1429,91.8607,262.0523,0,U,69307,999,548,-.1187E-2,-.38216E-3,0
STARLINK-37689,2026-119N,2026-06-26T00:02:32.970336,15.49239969,.000056,97.2875,202.7549,300.1291,59.9904,0,U,69308,999,539,.94568E-3,.51773E-3,0
STARLINK-37619,2026-119P,2026-06-26T04:00:01.998720,15.37050311,.0001431,97.2850,203.1443,75.6870,278.7501,0,U,69309,999,548,-.28304E-3,-.10312E-3,0
STARLINK-37794,2026-119Q,2026-06-26T01:33:18.543744,15.49198257,.0000746,97.2861,202.9768,125.2692,234.8629,0,U,69310,999,541,.53392E-3,.29064E-3,0
STARLINK-37795,2026-119R,2026-06-25T23:55:59.744928,15.49206861,.0000379,97.2874,202.7633,24.0812,336.0457,0,U,69311,999,539,.10774E-2,.58985E-3,0
STARLINK-37790,2026-119S,2026-06-26T04:00:01.998720,15.47388443,.0001148,97.2849,203.1392,79.0224,271.6876,0,U,69312,999,548,-.60221E-1,-.2699735E-1,0
STARLINK-37676,2026-119T,2026-06-26T04:00:01.998720,15.33450770,.0001588,97.2846,203.1810,87.2113,356.7324,0,U,69313,999,548,-.115E-2,-.3703E-3,0
STARLINK-37617,2026-119U,2026-06-26T04:00:01.998720,15.49192973,.0000988,97.2850,203.1456,90.4528,277.9244,0,U,69314,999,548,-.57698E-1,-.274866E-1,0
STARLINK-37627,2026-119V,2026-06-26T04:00:01.998720,15.45376170,.0001448,97.2852,203.1486,60.2887,314.2920,0,U,69315,999,548,-.24321E-1,-.1052835E-1,0
STARLINK-37738,2026-119W,2026-06-26T04:00:01.998720,15.49382475,.0001276,97.2849,203.1507,65.5939,312.4074,0,U,69316,999,548,-.95952E-2,-.493871E-2,0
STARLINK-37799,2026-119X,2026-06-26T04:00:01.998720,15.33430332,.0002132,97.2853,203.2041,78.9109,64.9296,0,U,69317,999,543,-.73391E-3,-.23685E-3,0
STARLINK-37802,2026-119Y,2026-06-26T04:00:01.998720,15.41724656,.0001681,97.2858,203.2077,68.5629,67.8450,0,U,69318,999,548,-.66103E-1,-.2471362E-1,0
STARLINK-37803,2026-119Z,2026-06-26T04:00:01.998720,15.49192215,.0000849,97.2857,203.0783,83.1374,120.3761,0,U,69319,999,543,-.19949E-3,-.10926E-3,0
GUOWANG TEST OBJECT A,2026-120A,2026-06-21T19:36:26.634816,15.38939558,.00113591,55.0017,6.9033,337.7695,22.2839,0,U,69320,999,340,.23139514E-3,.8673E-4,0
GUOWANG TEST OBJECT B,2026-120B,2026-06-26T04:01:07.673088,15.38949500,.0011373,54.9979,347.3041,353.4604,6.6274,0,U,69321,999,407,.36245E-3,.13823E-3,0
GUOWANG TEST OBJECT C,2026-120C,2026-06-24T12:50:17.868192,15.39708674,.00119516,54.9990,354.5630,356.3321,3.7618,0,U,69322,999,382,.33411019E-3,.1304E-3,0
GUOWANG TEST OBJECT D,2026-120D,2026-06-26T02:23:05.218944,15.38223796,.0011789,54.9973,347.5730,7.0244,353.0947,0,U,69323,999,406,.28991E-3,.10711E-3,0
QIANFAN-163,2026-121A,2026-06-20T19:57:23.546592,13.59758614,.00204763,89.0159,300.1473,178.2353,181.8879,0,U,69325,999,265,.30105417E-4,.35E-6,0
QIANFAN-164,2026-121B,2026-06-24T17:41:22.975872,13.57844977,.00206665,89.0174,299.7565,166.5026,193.6686,0,U,69326,999,318,.18866887E-3,.148E-5,0
SZ-22 MODULE,2025-272C,2026-06-25T16:31:13.009728,15.60530564,.0006798,41.4800,270.4160,159.3783,200.7331,0,U,69328,999,465,.27908E-3,.23442E-3,0
