STARLINK-37519          
1 69298U 26119C   26176.99935971  .00059830  00000+0  11765-2 0  9993
2 69298  97.2859 202.9138 0006695  30.6090 329.5550 15.47053958  5400
STARLINK-37455          
1 69299U 26119D   26177.16668980  .00002828  00000+0  53644-4 0  9996
2 69299  97.2854 202.9991 0001306  86.7067 288.8726 15.49187931  5327
STARLINK-37456          
1 69300U 26119E   26177.19443360 -.00412599  00000+0 -92810-2 0  9993
2 69300  97.2864 203.1067 0000811  45.7859 314.3456 15.44854255  5434
STARLINK-37630          
1 69301U 26119F   26177.19663948  .00074561  00000+0  13596-2 0  9995
2 69301  97.2864 202.9499 0000638  30.8055 329.3234 15.49189448  5420
STARLINK-37804          
1 69302U 26119G   26177.00412603  .00049020  00000+0  89647-3 0  9999
2 69302  97.2885 202.7550 0001804 108.1628 251.9820 15.49217098  5391
STARLINK-37730          
1 69303U 26119H   26177.16668980 -.00026253  00000+0 -81447-3 0  9993
2 69303  97.2849 203.1146 0000949  52.4901 241.3903 15.33414807  5487
STARLINK-37731          
1 69304U 26119J   26177.00520424  .00045798  00000+0  83812-3 0  9998
2 69304  97.2877 202.7531 0001716  89.2753 270.8694 15.49213335  5392
STARLINK-37734          
1 69305U 26119K   26176.61256707  .02188649  00000+0  38328-1 0  9990
2 69305  97.2863 202.5212 0005360  34.3796 325.7800 15.47533383  5349
STARLINK-37701          
1 69306U 26119L   26177.16668980 -.02473572  00000+0 -70873-1 0  9997
2 69306  97.2847 203.1350 0001678  91.7327 234.6404 15.39661553  5482
STARLINK-37732          
1 69307U 26119M   26177.16668980 -.00038216  00000+0 -11870-2 0  9991
2 69307  97.2846 203.1429 0001065  91.8607 262.0523 15.33456598  5483
STARLINK-37689          
1 69308U 26119N   26177.00177049  .00051773  00000+0  94568-3 0  9993
2 69308  97.2875 202.7549 0000560 300.1291  59.9904 15.49239969  5392
STARLINK-37619          
1 69309U 26119P   26177.16668980 -.00010312  00000+0 -28304-3 0  9991
2 69309  97.2850 203.1443 0001431  75.6870 278.7501 15.37050311  5482
STARLINK-37794          
1 69310U 26119Q   26177.06479796  .00029064  00000+0  53392-3 0  9994
2 69310  97.2861 202.9768 0000746 125.2692 234.8629 15.49198257  5417
STARLINK-37795          
1 69311U 26119R   26176.99721927  .00058985  00000+0  10774-2 0  9992
2 69311  97.2874 202.7633 0000379  24.0812 336.0457 15.49206861  5395
STARLINK-37790          
1 69312U 26119S   26177.16668980 -.02699735  00000+0 -60221-1 0  9991
2 69312  97.2849 203.1392 0001148  79.0224 271.6876 15.47388443  5481
STARLINK-37676          
1 69313U 26119T   26177.16668980 -.00037030  00000+0 -11500-2 0  9991
2 69313  97.2846 203.1810 0001588  87.2113 356.7324 15.33450770  5481
STARLINK-37617          
1 69314U 26119U   26177.16668980 -.02748660  00000+0 -57698-1 0  9999
2 69314  97.2850 203.1456 0000988  90.4528 277.9244 15.49192973  5482
STARLINK-37627          
1 69315U 26119V   26177.16668980 -.01052835  00000+0 -24321-1 0  9998
2 69315  97.2852 203.1486 0001448  60.2887 314.2920 15.45376170  5488
STARLINK-37738          
1 69316U 26119W   26177.16668980 -.00493871  00000+0 -95952-2 0  9996
2 69316  97.2849 203.1507 0001276  65.5939 312.4074 15.49382475  5483
STARLINK-37799          
1 69317U 26119X   26177.16668980 -.00023685  00000+0 -73391-3 0  9993
2 69317  97.2853 203.2041 0002132  78.9109  64.9296 15.33430332  5431
STARLINK-37802          
1 69318U 26119Y   26177.16668980 -.02471362  00000+0 -66103-1 0  9996
2 69318  97.2858 203.2077 0001681  68.5629  67.8450 15.41724656  5489
STARLINK-37803          
1 69319U 26119Z   26177.16668980 -.00010926  00000+0 -19949-3 0  9998
2 69319  97.2857 203.0783 0000849  83.1374 120.3761 15.49192215  5439
GUOWANG TEST OBJECT A   
1 69320U 26120A   26172.81697494  .00008673  00000+0  23140-3 0  9993
2 69320  55.0017   6.9033 0011359 337.7695  22.2839 15.38939558  3409
GUOWANG TEST OBJECT B   
1 69321U 26120B   26177.16744992  .00013823  00000+0  36245-3 0  9996
2 69321  54.9979 347.3041 0011373 353.4604   6.6274 15.38949500  4078
GUOWANG TEST OBJECT C   
1 69322U 26120C   26175.53492903  .00013040  00000+0  33411-3 0  9991
2 69322  54.9990 354.5630 0011951 356.3321   3.7618 15.39708674  3824
GUOWANG TEST OBJECT D   
1 69323U 26120D   26177.09936596  .00010711  00000+0  28991-3 0  9995
2 69323  54.9973 347.5730 0011789   7.0244 353.0947 15.38223796  4061
QIANFAN-163             
1 69325U 26121A   26171.83152253  .00000035  00000+0  30105-4 0  9993
2 69325  89.0159 300.1473 0020476 178.2353 181.8879 13.59758614  2659
QIANFAN-164             
1 69326U 26121B   26175.73707148  .00000148  00000+0  18867-3 0  9991
2 69326  89.0174 299.7565 0020666 166.5026 193.6686 13.57844977  3182
SZ-22 MODULE            
1 69328U 25272C   26176.68834502  .00023442  00000+0  27908-3 0  9997
2 69328  41.4800 270.4160 0006798 159.3783 200.7331 15.60530564  4659
